OBJECT_NAME,OBJECT_ID,EPOCH,MEAN_MOTION,ECCENTRICITY,INCLINATION,RA_OF_ASC_NODE,ARG_OF_PERICENTER,MEAN_ANOMALY,EPHEMERIS_TYPE,CLASSIFICATION_TYPE,NORAD_CAT_ID,ELEMENT_SET_NO,REV_AT_EPOCH,BSTAR,MEAN_MOTION_DOT,MEAN_MOTION_DDOT
FM-6,2013-058A,2026-07-22T06:02:38.677920,1.00270062,.00013385,0.0074,25.6057,153.3656,95.3222,0,U,39360,999,4642,0,-.12E-6,0
RADUGA-1M 3,2013-062A,2026-07-22T06:21:17.571744,1.00273156,.00019374,6.0451,71.9034,285.5597,72.8435,0,U,39375,999,4645,0,.151E-5,0
SES-8,2013-071A,2026-07-22T03:20:38.575968,1.00271554,.00029009,0.0607,260.3769,217.6716,326.9942,0,U,39460,999,4477,0,-.266E-5,0
INMARSAT 5-F1,2013-073A,2026-07-22T03:03:58.068288,1.00269816,.00002675,0.0159,61.3702,102.1246,245.0123,0,U,39476,999,4592,0,.31E-6,0
TKSAT-1 (TUPAC KATARI),2013-075A,2026-07-22T05:46:28.409376,1.00272724,.00027185,0.0198,174.8617,294.9472,189.6018,0,U,39481,999,4595,0,-.192E-5,0
EXPRESS-AM5,2013-077A,2026-07-22T06:51:14.700384,1.00271592,.00003488,0.0239,285.9569,195.2657,61.6510,0,U,39487,999,4671,0,-.277E-5,0
GSAT-14,2014-001A,2026-07-22T03:07:12.756864,1.00272013,.00020667,0.0276,92.7569,110.2877,217.5943,0,U,39498,999,4572,0,-.74E-6,0
THAICOM 6,2014-002A,2026-07-22T03:30:38.758752,1.00270072,.00047147,0.0307,136.5746,348.2301,306.2607,0,U,39500,999,4580,0,-.118E-5,0
TDRS 12,2014-004A,2026-07-22T05:59:42.141120,1.00271014,.00043462,4.0122,19.6534,199.4838,129.9201,0,U,39504,999,4462,0,-.269E-5,0
ABS-2,2014-006A,2026-07-21T20:16:46.374816,1.00272191,.00035107,0.0164,62.3478,41.9921,214.3626,0,U,39508,999,4562,0,-.84E-6,0
ATHENA-FIDUS,2014-006B,2026-07-22T02:56:51.249696,1.00273944,.00015413,0.0163,139.9440,341.0689,260.8673,0,U,39509,999,4543,0,.157E-5,0
TURKSAT 4A,2014-007A,2026-07-22T06:23:17.380032,1.00271112,.00011318,0.0783,279.7455,326.0010,192.0644,0,U,39522,999,4532,0,.149E-5,0
EXPRESS-AT1,2014-010A,2026-07-22T03:05:05.460288,1.00310969,.00046556,0.3456,85.4000,54.4578,273.1396,0,U,39612,999,4516,0,-.15E-6,0
EXPRESS-AT2,2014-010B,2026-07-22T03:01:58.259136,1.00270312,.00002509,0.0140,336.8187,31.6328,32.9128,0,U,39613,999,4484,0,.82E-6,0
AMAZONAS 4A,2014-011A,2026-07-22T05:50:13.050240,1.00271897,.00048979,0.0590,170.3522,328.6196,174.5716,0,U,39616,999,4506,0,-.249E-5,0
ASTRA 5B,2014-011B,2026-07-22T06:18:02.883168,1.00272188,.00021962,0.0627,311.8264,176.4426,289.6933,0,U,39617,999,4501,0,.14E-5,0
IRNSS-1B,2014-017A,2026-07-21T16:45:34.905024,1.00267561,.00214021,28.8684,239.8086,191.2309,174.9116,0,U,39635,999,4514,0,.138E-5,0
LUCH-5V,2014-023A,2026-07-22T03:13:04.694304,1.00271789,.00022875,5.2173,69.3812,78.5179,294.9989,0,U,39727,999,4471,0,-.27E-5,0
KAZSAT-3,2014-023B,2026-07-22T03:02:43.187136,1.00272873,.00001054,0.0091,354.7083,198.8422,210.5078,0,U,39728,999,4280,0,.63E-6,0
EUTELSAT 3B,2014-030A,2026-07-22T04:37:38.560224,1.00275013,.00044584,0.0625,347.4203,133.9452,251.0938,0,U,39773,999,4441,0,.24E-6,0
ASIASAT 8 (AMOS-7),2014-046A,2026-07-22T03:20:38.575968,1.00271327,.00017018,0.0221,76.9919,31.9827,346.3801,0,U,40107,999,10250,0,-.33E-5,0
ASIASAT 6,2014-052A,2026-07-22T06:45:30.250368,1.00272598,.00010962,0.0679,265.6089,235.8245,19.8820,0,U,40141,999,4343,0,-.359E-5,0
OPTUS 10,2014-054A,2026-07-22T05:13:09.566976,1.00271768,.0002009,0.1127,355.7849,118.1722,60.3042,0,U,40146,999,4338,0,-.144E-5,0
MEASAT-3B,2014-054B,2026-07-22T03:12:12.278016,1.00271415,.00025638,0.0243,20.1434,62.7528,356.5554,0,U,40147,999,4326,0,-.239E-5,0
HIMAWARI-8,2014-060A,2026-07-22T06:51:29.676096,1.00270960,.00013471,0.0407,265.3927,251.1188,27.0448,0,U,40267,999,4311,0,-.273E-5,0
IRNSS-1C,2014-061A,2026-07-20T16:56:40.720704,1.00271443,.00219392,6.5999,88.2929,6.0783,181.3257,0,U,40269,999,4302,0,-.167E-5,0
INTELSAT 30 (IS-30),2014-062A,2026-07-22T05:46:38.546688,1.00270597,.00016111,0.0165,55.1781,343.6655,252.7557,0,U,40271,999,714,0,-.148E-5,0
ARSAT 1,2014-062B,2026-07-22T05:50:50.489952,1.00271990,.00020723,0.0494,274.7291,196.2725,204.8956,0,U,40272,999,4297,0,-.257E-5,0
GSAT-16,2014-078A,2026-07-22T03:01:43.283424,1.00272434,.00076163,0.0136,72.1718,24.1590,304.0445,0,U,40332,999,4245,0,.88E-6,0
DIRECTV 14,2014-078B,2026-07-22T05:46:38.546688,1.00273652,.00005985,0.0121,51.8105,356.7464,238.8498,0,U,40333,999,4239,0,-.122E-5,0
YAMAL 401,2014-082A,2026-07-22T03:11:42.325728,1.00272697,.00008017,0.0337,221.3604,212.8123,3.5699,0,U,40345,999,4226,0,-.225E-5,0
