FM-6                    
1 39360U 13058A   26203.25183655 -.00000012  00000+0  00000+0 0  9998
2 39360   0.0074  25.6057 0001338 153.3656  95.3222  1.00270062 46420
RADUGA-1M 3             
1 39375U 13062A   26203.26478671  .00000151  00000+0  00000+0 0  9998
2 39375   6.0451  71.9034 0001937 285.5597  72.8435  1.00273156 46453
SES-8                   
1 39460U 13071A   26203.13933537 -.00000266  00000+0  00000+0 0  9994
2 39460   0.0607 260.3769 0002900 217.6716 326.9942  1.00271554 44773
INMARSAT 5-F1           
1 39476U 13073A   26203.12775542  .00000031  00000+0  00000+0 0  9991
2 39476   0.0159  61.3702 0000267 102.1246 245.0123  1.00269816 45926
TKSAT-1 (TUPAC KATARI)  
1 39481U 13075A   26203.24060659 -.00000192  00000+0  00000+0 0  9997
2 39481   0.0198 174.8617 0002718 294.9472 189.6018  1.00272724 45955
EXPRESS-AM5             
1 39487U 13077A   26203.28558681 -.00000277  00000+0  00000+0 0  9990
2 39487   0.0239 285.9569 0000348 195.2657  61.6510  1.00271592 46715
GSAT-14                 
1 39498U 14001A   26203.13000876 -.00000074  00000+0  00000+0 0  9997
2 39498   0.0276  92.7569 0002066 110.2877 217.5943  1.00272013 45723
THAICOM 6               
1 39500U 14002A   26203.14628193 -.00000118  00000+0  00000+0 0  9990
2 39500   0.0307 136.5746 0004714 348.2301 306.2607  1.00270072 45808
TDRS 12                 
1 39504U 14004A   26203.24979330 -.00000269  00000+0  00000+0 0  9996
2 39504   4.0122  19.6534 0004346 199.4838 129.9201  1.00271014 44625
ABS-2                   
1 39508U 14006A   26202.84498119 -.00000084  00000+0  00000+0 0  9993
2 39508   0.0164  62.3478 0003510  41.9921 214.3626  1.00272191 45627
ATHENA-FIDUS            
1 39509U 14006B   26203.12281539  .00000157  00000+0  00000+0 0  9992
2 39509   0.0163 139.9440 0001541 341.0689 260.8673  1.00273944 45438
TURKSAT 4A              
1 39522U 14007A   26203.26617338  .00000149  00000+0  00000+0 0  9994
2 39522   0.0783 279.7455 0001131 326.0010 192.0644  1.00271112 45323
EXPRESS-AT1             
1 39612U 14010A   26203.12853542 -.00000015  00000+0  00000+0 0  9995
2 39612   0.3456  85.4000 0004655  54.4578 273.1396  1.00310969 45167
EXPRESS-AT2             
1 39613U 14010B   26203.12636874  .00000082  00000+0  00000+0 0  9996
2 39613   0.0140 336.8187 0000250  31.6328  32.9128  1.00270312 44846
AMAZONAS 4A             
1 39616U 14011A   26203.24320660 -.00000249  00000+0  00000+0 0  9992
2 39616   0.0590 170.3522 0004897 328.6196 174.5716  1.00271897 45065
ASTRA 5B                
1 39617U 14011B   26203.26253337  .00000140  00000+0  00000+0 0  9990
2 39617   0.0627 311.8264 0002196 176.4426 289.6933  1.00272188 45015
IRNSS-1B                
1 39635U 14017A   26202.69832066  .00000138  00000+0  00000+0 0  9991
2 39635  28.8684 239.8086 0021402 191.2309 174.9116  1.00267561 45145
LUCH-5V                 
1 39727U 14023A   26203.13408211 -.00000270  00000+0  00000+0 0  9999
2 39727   5.2173  69.3812 0002287  78.5179 294.9989  1.00271789 44714
KAZSAT-3                
1 39728U 14023B   26203.12688874  .00000063  00000+0  00000+0 0  9993
2 39728   0.0091 354.7083 0000105 198.8422 210.5078  1.00272873 42808
EUTELSAT 3B             
1 39773U 14030A   26203.19280741  .00000024  00000+0  00000+0 0  9996
2 39773   0.0625 347.4203 0004458 133.9452 251.0938  1.00275013 44415
ASIASAT 8 (AMOS-7)      
1 40107U 14046A   26203.13933537 -.00000330  00000+0  00000+0 0  9999
2 40107   0.0221  76.9919 0001701  31.9827 346.3801  1.00271327102505
ASIASAT 6               
1 40141U 14052A   26203.28160012 -.00000359  00000+0  00000+0 0  9991
2 40141   0.0679 265.6089 0001096 235.8245  19.8820  1.00272598 43431
OPTUS 10                
1 40146U 14054A   26203.21747184 -.00000144  00000+0  00000+0 0  9994
2 40146   0.1127 355.7849 0002009 118.1722  60.3042  1.00271768 43387
MEASAT-3B               
1 40147U 14054B   26203.13347544 -.00000239  00000+0  00000+0 0  9997
2 40147   0.0243  20.1434 0002563  62.7528 356.5554  1.00271415 43266
HIMAWARI-8              
1 40267U 14060A   26203.28576014 -.00000273  00000+0  00000+0 0  9997
2 40267   0.0407 265.3927 0001347 251.1188  27.0448  1.00270960 43116
IRNSS-1C                
1 40269U 14061A   26201.70602686 -.00000167  00000+0  00000+0 0  9992
2 40269   6.5999  88.2929 0021939   6.0783 181.3257  1.00271443 43025
INTELSAT 30 (IS-30)     
1 40271U 14062A   26203.24072392 -.00000148  00000+0  00000+0 0  9991
2 40271   0.0165  55.1781 0001611 343.6655 252.7557  1.00270597  7142
ARSAT 1                 
1 40272U 14062B   26203.24363993 -.00000257  00000+0  00000+0 0  9993
2 40272   0.0494 274.7291 0002072 196.2725 204.8956  1.00271990 42974
GSAT-16                 
1 40332U 14078A   26203.12619541  .00000088  00000+0  00000+0 0  9998
2 40332   0.0136  72.1718 0007616  24.1590 304.0445  1.00272434 42459
DIRECTV 14              
1 40333U 14078B   26203.24072392 -.00000122  00000+0  00000+0 0  9999
2 40333   0.0121  51.8105 0000598 356.7464 238.8498  1.00273652 42392
YAMAL 401               
1 40345U 14082A   26203.13312877 -.00000225  00000+0  00000+0 0  9994
2 40345   0.0337 221.3604 0000801 212.8123   3.5699  1.00272697 42267
